[
    {
        "Altitude(m)": 605459.059083067,
        "Argument of Periapsis(deg)": 0.0,
        "Eccentricity": 0.0,
        "Inclination(deg)": 60.0,
        "Latitude(deg)": 27.98831233524419,
        "Longitude(deg)": 137.79861915582,
        "Mean Anomaly(deg)": 32.72730000000001,
        "RAAN(deg)": 220.00000000000003,
        "Satellite Name": "Test1 970",
        "Satellite Number": 970,
        "Semi-Major Axis(m)": 6980739.136638005,
        "Time(s)": 0
    },
    {
        "Altitude(m)": 605535.8503369446,
        "Argument of Periapsis(deg)": 0.00010418945913296404,
        "Eccentricity": 0.0,
        "Inclination(deg)": 60.0,
        "Latitude(deg)": 28.501441426527563,
        "Longitude(deg)": 138.15556530871316,
        "Mean Anomaly(deg)": 33.34740614546182,
        "RAAN(deg)": 219.99957995086027,
        "Satellite Name": "Test1 970",
        "Satellite Number": 970,
        "Semi-Major Axis(m)": 6980739.136638005,
        "Time(s)": 10
    }
]